NORAD_CAT_ID,OBJECT_NAME,OBJECT_TYPE,EPOCH,MEAN_MOTION,ECCENTRICITY,INCLINATION,RA_OF_ASC_NODE,ARG_OF_PERICENTER,MEAN_ANOMALY,BSTAR,MEAN_MOTION_DOT,MEAN_MOTION_DDOT,TLE_LINE0,TLE_LINE1,TLE_LINE2,SEMIMAJOR_AXIS,PERIOD,APOGEE,PERIGEE,DECAYED
55914.0,STARLINK-5856,PAYLOAD,2023-04-18 14:00:01,15.55728714,0.0003205,69.999,91.849,270.6818,260.5829,-0.01508,-0.00944131,0.0,0 STARLINK-5856,1 55914U 23037A   23108.58334491 -.00944131  00000-0 -15080-1 0  9999,2 55914  69.9990  91.8490 0003205 270.6818 260.5829 15.55728714  1302,6778.172,92.561,402.21,397.865,0.0
55914.0,STARLINK-5856,PAYLOAD,2023-04-18 22:00:00,15.5507636,0.0003308,69.9992,90.9319,263.5292,333.6265,-0.015083,-0.00923855,0.0,0 STARLINK-5856,1 55914U 23037A   23108.91667824 -.00923855  00000-0 -15083-1 0  9998,2 55914  69.9992  90.9319 0003308 263.5292 333.6265 15.55076360  1304,6780.068,92.6,404.176,399.69,0.0
55914.0,STARLINK-5856,PAYLOAD,2023-04-19 10:00:00,15.54080776,0.0003206,69.9993,89.5577,275.0337,239.5092,-0.015247,-0.00902392,0.0,0 STARLINK-5856,1 55914U 23037A   23109.41667824 -.00902392  00000-0 -15247-1 0  9999,2 55914  69.9993  89.5577 0003206 275.0337 239.5092 15.54080776  5648,6782.963,92.659,407.003,402.653,0.0
55914.0,STARLINK-5856,PAYLOAD,2023-04-19 14:00:01,15.53766296,0.0003348,69.9993,89.1002,272.0906,94.522,-0.016065,-0.00936514,0.0,0 STARLINK-5856,1 55914U 23037A   23109.58334491 -.00936514  00000-0 -16065-1 0  9990,2 55914  69.9993  89.1002 0003348 272.0906  94.5220 15.53766296  1301,6783.878,92.678,408.014,403.472,0.0
55914.0,STARLINK-5856,PAYLOAD,2023-04-19 22:00:00,15.53122203,0.0003393,69.9996,88.1861,268.6582,161.4955,-0.016248,-0.0092625,0.0,0 STARLINK-5856,1 55914U 23037A   23109.91667824 -.00926250  00000-0 -16248-1 0  9995,2 55914  69.9996  88.1861 0003393 268.6582 161.4955 15.53122203  1300,6785.754,92.716,409.921,405.316,0.0
55914.0,STARLINK-5856,PAYLOAD,2023-04-20 14:00:01,15.51705781,0.0003359,69.9994,86.3599,272.803,282.133,-0.011793,-0.00649949,0.0,0 STARLINK-5856,1 55914U 23037A   23110.58334491 -.00649949  00000-0 -11793-1 0  9998,2 55914  69.9994  86.3599 0003359 272.8030 282.1330 15.51705781  1307,6789.882,92.801,414.028,409.467,0.0
55914.0,STARLINK-5856,PAYLOAD,2023-04-20 20:00:01,15.51200459,0.0003417,69.9996,85.6761,266.7653,244.1414,0.001017,0.00059977,0.0,0 STARLINK-5856,1 55914U 23037A   23110.83334491  .00059977  00000-0  10170-2 0  9999,2 55914  69.9996  85.6761 0003417 266.7653 244.1414 15.51200459  5868,6791.357,92.831,415.543,410.901,0.0
55914.0,STARLINK-5856,PAYLOAD,2023-04-20 22:00:00,15.51233668,0.0003432,69.9999,85.4483,266.364,349.7591,4.781e-05,2.645e-05,0.0,0 STARLINK-5856,1 55914U 23037A   23110.91667824  .00002645  00000-0  47810-4 0  9990,2 55914  69.9999  85.4483 0003432 266.3640 349.7591 15.51233668  1300,6791.26,92.829,415.456,410.794,0.0
55914.0,STARLINK-5856,PAYLOAD,2023-04-21 06:00:00,15.51201416,0.000346,70.0003,84.5385,273.5142,43.5425,0.00044967,0.00026315,0.0,0 STARLINK-5856,1 55914U 23037A   23111.25001157  .00026315  00000-0  44967-3 0  9998,2 55914  70.0003  84.5385 0003460 273.5142  43.5425 15.51201416  5932,6791.354,92.831,415.569,410.869,0.0
55914.0,STARLINK-5856,PAYLOAD,2023-04-21 14:00:01,15.51235944,0.0003457,69.9998,83.6257,270.4674,107.4863,-0.00064796,-0.0003806,0.0,0 STARLINK-5856,1 55914U 23037A   23111.58334491 -.00038060  00000-0 -64796-3 0  9998,2 55914  69.9998  83.6257 0003457 270.4674 107.4863 15.51235944  1308,6791.253,92.829,415.466,410.771,0.0
55914.0,STARLINK-5856,PAYLOAD,2023-04-21 22:00:00,15.51237386,0.000347,70.0003,82.7143,265.1389,173.7165,-2.1822e-05,-1.447e-05,0.0,0 STARLINK-5856,1 55914U 23037A   23111.91667824 -.00001447  00000-0 -21822-4 0  9997,2 55914  70.0003  82.7143 0003470 265.1389 173.7165 15.51237386  1304,6791.249,92.829,415.471,410.758,0.0
55914.0,STARLINK-5856,PAYLOAD,2023-04-22 14:00:01,15.51244587,0.000329,70.0003,80.8917,267.9262,292.7749,-0.0011938,-0.00069725,0.0,0 STARLINK-5856,1 55914U 23037A   23112.58334491 -.00069725  00000-0 -11938-2 0  9990,2 55914  70.0003  80.8917 0003290 267.9262 292.7749 15.51244587  1303,6791.228,92.829,415.327,410.859,0.0
55914.0,STARLINK-5856,PAYLOAD,2023-04-22 22:00:01,15.5122625,0.0003331,70.0007,79.9807,262.1218,359.5424,0.0002993,0.00017456,0.0,0 STARLINK-5856,1 55914U 23037A   23112.91668981  .00017456  00000-0  29930-3 0  9995,2 55914  70.0007  79.9807 0003331 262.1218 359.5424 15.51226250  1307,6791.282,92.83,415.409,410.885,0.0
55914.0,STARLINK-5856,PAYLOAD,2023-04-23 08:00:01,15.51222051,0.0003312,70.0004,78.8415,269.2589,158.4946,0.00038197,0.00022333,0.0,0 STARLINK-5856,1 55914U 23037A   23113.33334491  .00022333  00000-0  38197-3 0  9993,2 55914  70.0004  78.8415 0003312 269.2589 158.4946 15.51222051  6254,6791.294,92.83,415.408,410.91,0.0
55914.0,STARLINK-5856,PAYLOAD,2023-04-23 14:00:01,15.51253512,0.0003309,70.0004,78.158,263.1035,120.3307,-0.0011792,-0.00068903,0.0,0 STARLINK-5856,1 55914U 23037A   23113.58334491 -.00068903  00000-0 -11792-2 0  9996,2 55914  70.0004  78.1580 0003309 263.1035 120.3307 15.51253512  1301,6791.202,92.828,415.314,410.82,0.0
55914.0,STARLINK-5856,PAYLOAD,2023-04-23 22:00:00,15.51242355,0.0003364,70.0008,77.2467,258.6102,185.7332,-0.00022677,-0.00013471,0.0,0 STARLINK-5856,1 55914U 23037A   23113.91667824 -.00013471  00000-0 -22677-3 0  9997,2 55914  70.0008  77.2467 0003364 258.6102 185.7332 15.51242355  6349,6791.235,92.829,415.384,410.815,0.0
55914.0,STARLINK-5856,PAYLOAD,2023-04-24 06:55:24,15.51242536,0.0003146,69.998,76.2302,264.4753,95.6074,4.3048e-05,2.366e-05,0.0,0 STARLINK-5856,1 55914U 23037A   23114.28847693  .00002366  00000-0  43048-4 0  9997,2 55914  69.9980  76.2302 0003146 264.4753  95.6074 15.51242536  6755,6791.234,92.829,415.236,410.963,0.0
55914.0,STARLINK-5856,PAYLOAD,2023-04-24 23:56:52,15.51214783,0.0002988,69.9982,74.2909,263.8915,96.1931,3.4384e-06,3.7e-07,0.0,0 STARLINK-5856,1 55914U 23037A   23114.99782878  .00000037  00000-0  34384-5 0  9995,2 55914  69.9982  74.2909 0002988 263.8915  96.1931 15.51214783  6519,6791.315,92.83,415.209,411.151,0.0
55914.0,STARLINK-5856,PAYLOAD,2023-04-25 07:41:10,15.512075,0.0003504,69.9981,73.4089,252.0759,108.0045,-6.9184e-07,-2.06e-06,0.0,0 STARLINK-5856,1 55914U 23037A   23115.32025616 -.00000206  00000-0 -69184-6 0  9990,2 55914  69.9981  73.4089 0003504 252.0759 108.0045 15.51207500  6562,6791.336,92.831,415.581,410.822,0.0
55914.0,STARLINK-5856,PAYLOAD,2023-04-26 00:42:53,15.51038098,0.0004352,70.0001,71.4734,250.998,109.0735,-0.00038975,-0.00022846,0.0,0 STARLINK-5856,1 55914U 23037A   23116.02978403 -.00022846  00000-0 -38975-3 0  9994,2 55914  70.0001  71.4734 0004352 250.9980 109.0735 15.51038098  7021,6791.831,92.841,416.652,410.74,0.0
55914.0,STARLINK-5856,PAYLOAD,2023-04-26 14:38:58,15.49949823,0.0002959,69.9965,69.8858,293.7825,66.305,-0.00048609,-0.0002736,0.0,0 STARLINK-5856,1 55914U 23037A   23116.61039574 -.00027360  00000-0 -48609-3 0  9997,2 55914  69.9965  69.8858 0002959 293.7825  66.3050 15.49949823  7118,6795.01,92.906,418.885,414.864,0.0
55914.0,STARLINK-5856,PAYLOAD,2023-04-27 06:00:02,15.47884206,0.0003364,70.0007,68.145,272.613,50.7553,-0.01844,-0.0087682,0.0,0 STARLINK-5856,1 55914U 23037A   23117.25002315 -.00876820  00000-0 -18440-1 0  9992,2 55914  70.0007  68.1450 0003364 272.6130  50.7553 15.47884206  6861,6801.054,93.03,425.206,420.631,0.0
55914.0,STARLINK-5856,PAYLOAD,2023-04-27 14:00:01,15.47222838,0.0003362,70.0005,67.2387,269.3709,110.5322,-0.018832,-0.00875189,0.0,0 STARLINK-5856,1 55914U 23037A   23117.58335648 -.00875189  00000-0 -18832-1 0  9998,2 55914  70.0005  67.2387 0003362 269.3709 110.5322 15.47222838  1301,6802.992,93.07,427.144,422.569,0.0
55914.0,STARLINK-5856,PAYLOAD,2023-04-28 00:00:00,15.46441591,0.0003261,70.0006,66.1067,268.5091,270.8797,-0.020738,-0.00945349,0.0,0 STARLINK-5856,1 55914U 23037A   23118.00001157 -.00945349  00000-0 -20738-1 0  9995,2 55914  70.0006  66.1067 0003261 268.5091 270.8797 15.46441591  6970,6805.283,93.117,429.367,424.928,0.0
55914.0,STARLINK-5856,PAYLOAD,2023-04-28 14:00:01,15.45263247,0.0003198,70.0004,64.5247,268.5781,276.1491,-0.019997,-0.00880576,0.0,0 STARLINK-5856,1 55914U 23037A   23118.58334491 -.00880576  00000-0 -19997-1 0  9993,2 55914  70.0004  64.5247 0003198 268.5781 276.1491 15.45263247  1306,6808.742,93.188,432.784,428.429,0.0
55914.0,STARLINK-5856,PAYLOAD,2023-04-28 22:00:00,15.44666119,0.0003318,70.0005,63.6222,264.9107,333.1966,-0.02246,-0.00961767,0.0,0 STARLINK-5856,1 55914U 23037A   23118.91667824 -.00961767  00000-0 -22460-1 0  9990,2 55914  70.0005  63.6222 0003318 264.9107 333.1966 15.44666119  7127,6810.496,93.224,434.621,430.102,0.0
55914.0,STARLINK-5856,PAYLOAD,2023-04-29 14:00:01,15.43302569,0.0003446,70.0002,61.819,268.3815,74.2628,-0.021211,-0.00874281,0.0,0 STARLINK-5856,1 55914U 23037A   23119.58335648 -.00874281  00000-0 -21211-1 0  9997,2 55914  70.0002  61.8190 0003446 268.3815  74.2628 15.43302569  1301,6814.507,93.306,438.72,434.024,0.0
55914.0,STARLINK-5856,PAYLOAD,2023-04-29 22:00:00,15.42708707,0.0003537,70.0007,60.919,268.9152,124.6968,-0.024055,-0.00963752,0.0,0 STARLINK-5856,1 55914U 23037A   23119.91667824 -.00963752  00000-0 -24055-1 0  9999,2 55914  70.0007  60.9190 0003537 268.9152 124.6968 15.42708707  7279,6816.256,93.342,440.532,435.71,0.0
55914.0,STARLINK-5856,PAYLOAD,2023-04-30 14:00:01,15.41343931,0.000332,70.0003,59.1211,269.535,223.8524,-0.022464,-0.00867478,0.0,0 STARLINK-5856,1 55914U 23037A   23120.58334491 -.00867478  00000-0 -22464-1 0  9995,2 55914  70.0003  59.1211 0003320 269.5350 223.8524 15.41343931  1307,6820.279,93.425,444.408,439.88,0.0
55914.0,STARLINK-5856,PAYLOAD,2023-04-30 16:00:00,15.41180383,0.0003357,70.0004,58.8966,264.8757,330.758,-0.022241,-0.00855187,0.0,0 STARLINK-5856,1 55914U 23037A   23120.66667824 -.00855187  00000-0 -22241-1 0  9990,2 55914  70.0004  58.8966 0003357 264.8757 330.7580 15.41180383  7395,6820.761,93.435,444.916,440.337,0.0
